[{"OBJECT_NAME":"METEOSAT-11 (MSG-4)","OBJECT_ID":"2015-034A","EPOCH":"2026-04-27T02:45:38.840832","MEAN_MOTION":1.00264233,"ECCENTRICITY":0.0001589,"INCLINATION":3.074,"RA_OF_ASC_NODE":71.3738,"ARG_OF_PERICENTER":344.8606,"MEAN_ANOMALY":209.852,"EPHEMERIS_TYPE":0,"CLASSIFICATION_TYPE":"U","NORAD_CAT_ID":40732,"ELEMENT_SET_NO":999,"REV_AT_EPOCH":670,"BSTAR":0,"MEAN_MOTION_DOT":5.5e-7,"MEAN_MOTION_DDOT":0},{"OBJECT_NAME":"ELEKTRO-L 2","OBJECT_ID":"2015-074A","EPOCH":"2026-04-27T01:28:33.725280","MEAN_MOTION":1.00270643,"ECCENTRICITY":0.0002271,"INCLINATION":6.5682,"RA_OF_ASC_NODE":71.1388,"ARG_OF_PERICENTER":256.8337,"MEAN_ANOMALY":254.7105,"EPHEMERIS_TYPE":0,"CLASSIFICATION_TYPE":"U","NORAD_CAT_ID":41105,"ELEMENT_SET_NO":999,"REV_AT_EPOCH":3799,"BSTAR":0,"MEAN_MOTION_DOT":-1.23e-6,"MEAN_MOTION_DDOT":0},{"OBJECT_NAME":"INSAT-3DR","OBJECT_ID":"2016-054A","EPOCH":"2026-04-26T23:14:27.383136","MEAN_MOTION":1.0027158,"ECCENTRICITY":0.0011578,"INCLINATION":0.1155,"RA_OF_ASC_NODE":86.2537,"ARG_OF_PERICENTER":195.0845,"MEAN_ANOMALY":356.2288,"EPHEMERIS_TYPE":0,"CLASSIFICATION_TYPE":"U","NORAD_CAT_ID":41752,"ELEMENT_SET_NO":999,"REV_AT_EPOCH":3530,"BSTAR":0,"MEAN_MOTION_DOT":-8.8e-7,"MEAN_MOTION_DDOT":0},{"OBJECT_NAME":"HIMAWARI-9","OBJECT_ID":"2016-064A","EPOCH":"2026-04-26T22:47:34.168128","MEAN_MOTION":1.00274549,"ECCENTRICITY":8.81e-5,"INCLINATION":0.0386,"RA_OF_ASC_NODE":122.4457,"ARG_OF_PERICENTER":283.4654,"MEAN_ANOMALY":291.6973,"EPHEMERIS_TYPE":0,"CLASSIFICATION_TYPE":"U","NORAD_CAT_ID":41836,"ELEMENT_SET_NO":999,"REV_AT_EPOCH":3469,"BSTAR":0,"MEAN_MOTION_DOT":-2.85e-6,"MEAN_MOTION_DDOT":0},{"OBJECT_NAME":"GOES 16","OBJECT_ID":"2016-071A","EPOCH":"2026-04-27T04:46:11.472096","MEAN_MOTION":1.00271254,"ECCENTRICITY":0.0001485,"INCLINATION":0.2138,"RA_OF_ASC_NODE":85.2983,"ARG_OF_PERICENTER":251.7192,"MEAN_ANOMALY":205.0053,"EPHEMERIS_TYPE":0,"CLASSIFICATION_TYPE":"U","NORAD_CAT_ID":41866,"ELEMENT_SET_NO":999,"REV_AT_EPOCH":3459,"BSTAR":0,"MEAN_MOTION_DOT":-1.01e-6,"MEAN_MOTION_DDOT":0},{"OBJECT_NAME":"FENGYUN 4A","OBJECT_ID":"2016-077A","EPOCH":"2026-04-26T22:42:42.134400","MEAN_MOTION":1.00266708,"ECCENTRICITY":0.0008114,"INCLINATION":2.1949,"RA_OF_ASC_NODE":80.7916,"ARG_OF_PERICENTER":141.1904,"MEAN_ANOMALY":97.3367,"EPHEMERIS_TYPE":0,"CLASSIFICATION_TYPE":"U","NORAD_CAT_ID":41882,"ELEMENT_SET_NO":999,"REV_AT_EPOCH":3441,"BSTAR":0,"MEAN_MOTION_DOT":-3.66e-6,"MEAN_MOTION_DDOT":0},{"OBJECT_NAME":"CYGFM05","OBJECT_ID":"2016-078A","EPOCH":"2026-04-27T00:42:11.145024","MEAN_MOTION":15.54443402,"ECCENTRICITY":0.0007099,"INCLINATION":34.957,"RA_OF_ASC_NODE":238.7661,"ARG_OF_PERICENTER":26.6398,"MEAN_ANOMALY":333.4689,"EPHEMERIS_TYPE":0,"CLASSIFICATION_TYPE":"U","NORAD_CAT_ID":41884,"ELEMENT_SET_NO":999,"REV_AT_EPOCH":52078,"BSTAR":0.00036334,"MEAN_MOTION_DOT":0.0002471,"MEAN_MOTION_DDOT":0},{"OBJECT_NAME":"CYGFM04","OBJECT_ID":"2016-078B","EPOCH":"2026-04-26T15:16:31.969632","MEAN_MOTION":15.58659522,"ECCENTRICITY":0.00060487,"INCLINATION":34.9326,"RA_OF_ASC_NODE":211.4734,"ARG_OF_PERICENTER":69.7373,"MEAN_ANOMALY":290.4001,"EPHEMERIS_TYPE":0,"CLASSIFICATION_TYPE":"U","NORAD_CAT_ID":41885,"ELEMENT_SET_NO":999,"REV_AT_EPOCH":52094,"BSTAR":0.00041410503,"MEAN_MOTION_DOT":0.00033003,"MEAN_MOTION_DDOT":0},{"OBJECT_NAME":"CYGFM02","OBJECT_ID":"2016-078C","EPOCH":"2026-04-26T15:50:24.051840","MEAN_MOTION":15.61017103,"ECCENTRICITY":0.00071466,"INCLINATION":34.9407,"RA_OF_ASC_NODE":207.1678,"ARG_OF_PERICENTER":71.056,"MEAN_ANOMALY":289.0939,"EPHEMERIS_TYPE":0,"CLASSIFICATION_TYPE":"U","NORAD_CAT_ID":41886,"ELEMENT_SET_NO":999,"REV_AT_EPOCH":52110,"BSTAR":0.00042980671,"MEAN_MOTION_DOT":0.00037532,"MEAN_MOTION_DDOT":0},{"OBJECT_NAME":"CYGFM01","OBJECT_ID":"2016-078D","EPOCH":"2026-04-26T17:14:05.857440","MEAN_MOTION":15.55033742,"ECCENTRICITY":0.00069082,"INCLINATION":34.9403,"RA_OF_ASC_NODE":242.2753,"ARG_OF_PERICENTER":16.6774,"MEAN_ANOMALY":343.4176,"EPHEMERIS_TYPE":0,"CLASSIFICATION_TYPE":"U","NORAD_CAT_ID":41887,"ELEMENT_SET_NO":999,"REV_AT_EPOCH":52068,"BSTAR":0.00041047811,"MEAN_MOTION_DOT":0.0002855,"MEAN_MOTION_DDOT":0},{"OBJECT_NAME":"CYGFM08","OBJECT_ID":"2016-078E","EPOCH":"2026-04-26T16:42:14.496768","MEAN_MOTION":15.57367031,"ECCENTRICITY":0.000806,"INCLINATION":34.9432,"RA_OF_ASC_NODE":223.264,"ARG_OF_PERICENTER":49.0046,"MEAN_ANOMALY":311.1375,"EPHEMERIS_TYPE":0,"CLASSIFICATION_TYPE":"U","NORAD_CAT_ID":41888,"ELEMENT_SET_NO":999,"REV_AT_EPOCH":52093,"BSTAR":0.00042026254,"MEAN_MOTION_DOT":0.00031913,"MEAN_MOTION_DDOT":0},{"OBJECT_NAME":"CYGFM07","OBJECT_ID":"2016-078G","EPOCH":"2026-04-26T15:47:50.339328","MEAN_MOTION":15.5744571,"ECCENTRICITY":0.00064745,"INCLINATION":34.9448,"RA_OF_ASC_NODE":211.8986,"ARG_OF_PERICENTER":68.5433,"MEAN_ANOMALY":291.5981,"EPHEMERIS_TYPE":0,"CLASSIFICATION_TYPE":"U","NORAD_CAT_ID":41890,"ELEMENT_SET_NO":999,"REV_AT_EPOCH":52095,"BSTAR":0.00040621263,"MEAN_MOTION_DOT":0.00030915,"MEAN_MOTION_DDOT":0},{"OBJECT_NAME":"CYGFM03","OBJECT_ID":"2016-078H","EPOCH":"2026-04-26T15:05:59.508672","MEAN_MOTION":15.57451399,"ECCENTRICITY":0.00057836,"INCLINATION":34.9403,"RA_OF_ASC_NODE":214.0471,"ARG_OF_PERICENTER":54.5985,"MEAN_ANOMALY":305.5279,"EPHEMERIS_TYPE":0,"CLASSIFICATION_TYPE":"U","NORAD_CAT_ID":41891,"ELEMENT_SET_NO":999,"REV_AT_EPOCH":52092,"BSTAR":0.00040668391,"MEAN_MOTION_DOT":0.00030952,"MEAN_MOTION_DDOT":0},{"OBJECT_NAME":"FENGYUN 3D","OBJECT_ID":"2017-072A","EPOCH":"2026-04-27T04:39:11.162880","MEAN_MOTION":14.19729195,"ECCENTRICITY":0.0001416,"INCLINATION":99.0094,"RA_OF_ASC_NODE":90.705,"ARG_OF_PERICENTER":152.1851,"MEAN_ANOMALY":207.94,"EPHEMERIS_TYPE":0,"CLASSIFICATION_TYPE":"U","NORAD_CAT_ID":43010,"ELEMENT_SET_NO":999,"REV_AT_EPOCH":43775,"BSTAR":0.0002277,"MEAN_MOTION_DOT":4.36e-6,"MEAN_MOTION_DDOT":0},{"OBJECT_NAME":"NOAA 20 (JPSS-1)","OBJECT_ID":"2017-073A","EPOCH":"2026-04-27T02:39:09.869760","MEAN_MOTION":14.1954774,"ECCENTRICITY":0.0002095,"INCLINATION":98.7746,"RA_OF_ASC_NODE":57.0337,"ARG_OF_PERICENTER":71.6668,"MEAN_ANOMALY":288.4736,"EPHEMERIS_TYPE":0,"CLASSIFICATION_TYPE":"U","NORAD_CAT_ID":43013,"ELEMENT_SET_NO":999,"REV_AT_EPOCH":43722,"BSTAR":4.6547e-5,"MEAN_MOTION_DOT":5.4e-7,"MEAN_MOTION_DDOT":0},{"OBJECT_NAME":"GOES 17","OBJECT_ID":"2018-022A","EPOCH":"2026-04-27T04:51:38.611008","MEAN_MOTION":1.00271983,"ECCENTRICITY":6.6e-5,"INCLINATION":0.8088,"RA_OF_ASC_NODE":86.3949,"ARG_OF_PERICENTER":278.4125,"MEAN_ANOMALY":193.8075,"EPHEMERIS_TYPE":0,"CLASSIFICATION_TYPE":"U","NORAD_CAT_ID":43226,"ELEMENT_SET_NO":999,"REV_AT_EPOCH":2991,"BSTAR":0,"MEAN_MOTION_DOT":-1.92e-6,"MEAN_MOTION_DDOT":0},{"OBJECT_NAME":"FENGYUN 2H","OBJECT_ID":"2018-050A","EPOCH":"2026-04-27T00:12:41.004288","MEAN_MOTION":1.00274296,"ECCENTRICITY":0.0001673,"INCLINATION":2.9019,"RA_OF_ASC_NODE":79.6483,"ARG_OF_PERICENTER":158.5665,"MEAN_ANOMALY":59.218,"EPHEMERIS_TYPE":0,"CLASSIFICATION_TYPE":"U","NORAD_CAT_ID":43491,"ELEMENT_SET_NO":999,"REV_AT_EPOCH":2892,"BSTAR":0,"MEAN_MOTION_DOT":-1.38e-6,"MEAN_MOTION_DDOT":0}]
